{"addresses":[
{"street":"742 Silver Oak Dr","city":"Tehachapi","state":"CA","zip":"93561","lat":"35.1295913","lng":"-118.4598666"},
{"street":"22720 Lake Dr","city":"Tehachapi","state":"CA","zip":"93561","lat":"35.1502216","lng":"-118.4803973"},
{"street":"21301 Golden Hills Blvd","city":"Tehachapi","state":"CA","zip":"93561","lat":"35.1288856","lng":"-118.4864647"},
{"street":"21900 Old Well Rd","city":"Tehachapi","state":"CA","zip":"93561","lat":"35.1390114","lng":"-118.3100073"},
{"street":"400 Woodrow St #APT 5","city":"Taft","state":"CA","zip":"93268","lat":"35.1453293","lng":"-119.4560065"},
{"street":"3608 Alice Meadows Ct","city":"Bakersfield","state":"CA","zip":"93313","lat":"35.2794247","lng":"-119.0425151"},
{"street":"24405 San Juan Dr","city":"Tehachapi","state":"CA","zip":"93561","lat":"35.174939","lng":"-118.633738"},
{"street":"21241 Golden Hills Blvd","city":"Tehachapi","state":"CA","zip":"93561","lat":"35.1278667","lng":"-118.4861944"},
{"street":"7633 Lordsburg Dr","city":"Bakersfield","state":"CA","zip":"93309","lat":"35.3210286","lng":"-119.087741"},
{"street":"706 B St","city":"Taft","state":"CA","zip":"93268","lat":"35.1361022","lng":"-119.4763337"},
{"street":"1512 El Toro Dr","city":"Bakersfield","state":"CA","zip":"93304","lat":"35.3407976","lng":"-119.0160551"},
{"street":"Rawhide","city":"Tehachapi","state":"CA","zip":"93561","lat":"35.0826931","lng":"-118.6241078"},
{"street":"3003 Peerless Ave","city":"Bakersfield","state":"CA","zip":"93308","lat":"35.4335561","lng":"-119.0204305"},
{"street":"8700 Willow Spring Ct","city":"Bakersfield","state":"CA","zip":"93312","lat":"35.3664809","lng":"-119.0990341"},
{"street":"21405 Indian Wells Dr","city":"Tehachapi","state":"CA","zip":"93561","lat":"35.149352","lng":"-118.5106868"},
{"street":"21255 Madre St #C","city":"Tehachapi","state":"CA","zip":"93561","lat":"35.1267013","lng":"-118.4900686"},
{"street":"402 E Woodrow St","city":"Taft","state":"CA","zip":"93268","lat":"35.1439285","lng":"-119.4436638"},
{"street":"600 N Dennison Rd #15","city":"Tehachapi","state":"CA","zip":"93561","lat":"35.13246970000001","lng":"-118.4321335"},
{"street":"1025 Hickory Ave","city":"Tehachapi","state":"CA","zip":"93561","lat":"35.1200045","lng":"-118.4618285"},
{"street":"520 Olive St #C","city":"Bakersfield","state":"CA","zip":"93304","lat":"35.3627521","lng":"-119.0369414"},
{"street":"420 N Mill St","city":"Tehachapi","state":"CA","zip":"93561","lat":"35.135746","lng":"-118.4509919"},
{"street":"626 D St","city":"Taft","state":"CA","zip":"93268","lat":"35.1343965","lng":"-119.4746829"},
{"street":"6805 Klamath Way","city":"Bakersfield","state":"CA","zip":"93309","lat":"35.3291336","lng":"-119.0779417"},
{"street":"3450 Grassotti Ct","city":"Bakersfield","state":"CA","zip":"93309","lat":"35.330213","lng":"-119.0407404"},
{"street":"Willow Pass Dr","city":"Tehachapi","state":"CA","zip":"93561","lat":"35.1725097","lng":"-118.638903"},
{"street":"21430 Mission St","city":"Tehachapi","state":"CA","zip":"93561","lat":"35.1310694","lng":"-118.4927601"},
{"street":"11506 Palm Ave","city":"Bakersfield","state":"CA","zip":"93312","lat":"35.3764414","lng":"-119.1313634"},
{"street":"1200 38th St #9","city":"Bakersfield","state":"CA","zip":"93301","lat":"35.3947208","lng":"-119.0159386"},
{"street":"1329 Fair Oak Dr","city":"Tehachapi","state":"CA","zip":"93561","lat":"35.1139622","lng":"-118.4435314"},
{"street":"6701 Auburn St","city":"Bakersfield","state":"CA","zip":"93306","lat":"35.397736","lng":"-118.921089"},
{"street":"609 Buena Vista St","city":"Taft","state":"CA","zip":"93268","lat":"35.1316366","lng":"-119.456954"},
{"street":"500 Plover Ct","city":"Bakersfield","state":"CA","zip":"93309","lat":"35.3573809","lng":"-119.0774925"},
{"street":"811 Quincy St","city":"Bakersfield","state":"CA","zip":"93305","lat":"35.3844829","lng":"-118.9879079"},
{"street":"503 S Mill St","city":"Tehachapi","state":"CA","zip":"93561","lat":"35.1273653","lng":"-118.45357"},
{"street":"22384 Zurich Dr","city":"Tehachapi","state":"CA","zip":"93561","lat":"35.0834136","lng":"-118.5232754"},
{"street":"700 New Stine Rd #18","city":"Bakersfield","state":"CA","zip":"93309","lat":"35.34838939999999","lng":"-119.0607898"},
{"street":"14305 Tierra Blanca Ave","city":"Bakersfield","state":"CA","zip":"93314","lat":"35.3528599","lng":"-119.1608923"},
{"street":"7719 Snowbird St","city":"Bakersfield","state":"CA","zip":"93307","lat":"35.2846843","lng":"-119.0204654"},
{"street":"24400 Willow Pass Dr","city":"Tehachapi","state":"CA","zip":"93561","lat":"35.1739019","lng":"-118.6396284"},
{"street":"400 N Stine Rd","city":"Bakersfield","state":"CA","zip":"93309","lat":"35.3620562","lng":"-119.0474701"},
{"street":"21230 Golden Hills Blvd #A","city":"Tehachapi","state":"CA","zip":"93561","lat":"35.1276734","lng":"-118.4856436"},
{"street":"10425 Glenn St","city":"Bakersfield","state":"CA","zip":"93312","lat":"35.3772197","lng":"-119.1184484"},
{"street":"26620 Columbia Way","city":"Tehachapi","state":"CA","zip":"93561","lat":"35.1606412","lng":"-118.6035733"},
{"street":"1718 Panama Ln #701","city":"Bakersfield","state":"CA","zip":"93307","lat":"35.296963","lng":"-119.0221129"},
{"street":"6409 Castleford St","city":"Bakersfield","state":"CA","zip":"93313","lat":"35.2966897","lng":"-119.0421514"},
{"street":"Po Box 551","city":"Taft","state":"CA","zip":"93268","lat":"35.1424671","lng":"-119.4565078"},
{"street":"21192 Old Town Rd","city":"Tehachapi","state":"CA","zip":"93561","lat":"35.1261345","lng":"-118.5091359"},
{"street":"720 Way Ter #54","city":"Bakersfield","state":"CA","zip":"93304","lat":"35.350606","lng":"-119.011292"},
{"street":"29 Emmons Park Dr","city":"Taft","state":"CA","zip":"93268","lat":"35.1492183","lng":"-119.4601285"},
{"street":"19813 Moon Dr","city":"Tehachapi","state":"CA","zip":"93561","lat":"35.1445472","lng":"-118.4825657"},
{"street":"716 Taylor St","city":"Taft","state":"CA","zip":"93268","lat":"35.1621164","lng":"-119.4598485"},
{"street":"11726 Stratosphere Ave","city":"Bakersfield","state":"CA","zip":"93312","lat":"35.3938236","lng":"-119.1332035"},
{"street":"21011 Sierra Vista Dr","city":"Tehachapi","state":"CA","zip":"93561","lat":"35.1248541","lng":"-118.4741357"},
{"street":"24181 Willow Pass Dr","city":"Tehachapi","state":"CA","zip":"93561","lat":"35.1694711","lng":"-118.6358455"},
{"street":"620 Hudson Dr","city":"Bakersfield","state":"CA","zip":"93307","lat":"35.2768089","lng":"-119.0111573"},
{"street":"601 Douglas St #112B","city":"Bakersfield","state":"CA","zip":"93308","lat":"35.4256389","lng":"-119.0325363"},
{"street":"1942 Juniper Ct","city":"Bakersfield","state":"CA","zip":"93309","lat":"35.3368648","lng":"-119.0439698"},
{"street":"Knotts","city":"Bakersfield","state":"CA","zip":"93301","lat":"35.3912974","lng":"-118.9851826"},
{"street":"811 Quincy St","city":"Bakersfield","state":"CA","zip":"93305","lat":"35.3844829","lng":"-118.9879079"},
{"street":"322 E Woodrow St","city":"Taft","state":"CA","zip":"93268","lat":"35.1438956","lng":"-119.4442384"},
{"street":"309 Naylor Ave","city":"Taft","state":"CA","zip":"93268","lat":"35.1340568","lng":"-119.4577292"},
{"street":"25101 Bear Valley Rd","city":"Tehachapi","state":"CA","zip":"93561","lat":"35.14726600000001","lng":"-118.5760334"},
{"street":"400 Wilson St","city":"Arvin","state":"CA","zip":"93203","lat":"35.2124663","lng":"-118.8289329"},
{"street":"813 Townsley Ave","city":"Bakersfield","state":"CA","zip":"93304","lat":"35.3487267","lng":"-119.0114173"},
{"street":"29941 Sunland Way","city":"Tehachapi","state":"CA","zip":"93561","lat":"35.150297","lng":"-118.664194"},
{"street":"3409 Edison Hwy","city":"Bakersfield","state":"CA","zip":"93307","lat":"35.3643658","lng":"-118.9425615"},
{"street":"14305 Tierra Blanca Ave","city":"Bakersfield","state":"CA","zip":"93314","lat":"35.3528599","lng":"-119.1608923"},
{"street":"700 46th St","city":"Bakersfield","state":"CA","zip":"93301","lat":"35.4006464","lng":"-119.0104231"},
{"street":"4015 Scenic River Ln","city":"Bakersfield","state":"CA","zip":"93308","lat":"35.3961246","lng":"-119.0899906"},
{"street":"716 Espee St","city":"Bakersfield","state":"CA","zip":"93301","lat":"35.3841287","lng":"-119.0094393"},
{"street":"706 Mulberry St","city":"Tehachapi","state":"CA","zip":"93561","lat":"35.124585","lng":"-118.4558742"},
{"street":"6 Village Ln #12","city":"Tehachapi","state":"CA","zip":"93561","lat":"35.167599","lng":"-118.658792"},
{"street":"7633 Lordsburg Dr","city":"Bakersfield","state":"CA","zip":"93309","lat":"35.3210286","lng":"-119.087741"},
{"street":"21410 Golden Hills Blvd","city":"Tehachapi","state":"CA","zip":"93561","lat":"35.1304195","lng":"-118.4865698"},
{"street":"22904 Woodford Tehachapi Rd","city":"Tehachapi","state":"CA","zip":"93561","lat":"35.152828","lng":"-118.4941465"},
{"street":"11105 Cypress Falls Ave","city":"Bakersfield","state":"CA","zip":"93312","lat":"35.4243929","lng":"-119.1261158"},
{"street":"813 La Puente Dr","city":"Bakersfield","state":"CA","zip":"93309","lat":"35.3468968","lng":"-119.0732429"},
{"street":"22202 Mccarthy Dr","city":"Tehachapi","state":"CA","zip":"93561","lat":"35.1423629","lng":"-118.5018833"},
{"street":"11601 Silver Crown Ave","city":"Bakersfield","state":"CA","zip":"93312","lat":"35.4153927","lng":"-119.1311135"},
{"street":"Kelton","city":"Tehachapi","state":"CA","zip":"93561","lat":"35.1220918","lng":"-118.454432"},
{"street":"9903 Rancho Verde Dr","city":"Bakersfield","state":"CA","zip":"93311","lat":"35.3197819","lng":"-119.1128254"},
{"street":"516 Fillmore St","city":"Taft","state":"CA","zip":"93268","lat":"35.1588958","lng":"-119.4608912"},
{"street":"1301 New Stine Rd #A1","city":"Bakersfield","state":"CA","zip":"93309","lat":"35.3419404","lng":"-119.0621298"},
{"street":"400 White Ln","city":"Bakersfield","state":"CA","zip":"93307","lat":"35.3181794","lng":"-119.0063474"},
{"street":"925 Quincy St","city":"Bakersfield","state":"CA","zip":"93305","lat":"35.3839343","lng":"-118.9858124"},
{"street":"3901 Navajo Ave","city":"Bakersfield","state":"CA","zip":"93309","lat":"35.349168","lng":"-119.045754"},
{"street":"319 Spectacular Bid Dr","city":"Bakersfield","state":"CA","zip":"93307","lat":"35.2805182","lng":"-118.9997477"},
{"street":"5004 Sea Star Ln","city":"Bakersfield","state":"CA","zip":"93309","lat":"35.3346139","lng":"-119.0576525"},
{"street":"906 Union Ave","city":"Bakersfield","state":"CA","zip":"93307","lat":"35.3662004","lng":"-119.0024141"},
{"street":"3535 S H St #49","city":"Bakersfield","state":"CA","zip":"93304","lat":"35.3226946","lng":"-119.0216702"},
{"street":"8118 Fighting Irish Dr","city":"Bakersfield","state":"CA","zip":"93313","lat":"35.2805172","lng":"-119.0501976"},
{"street":"619 Buena Vista St","city":"Taft","state":"CA","zip":"93268","lat":"35.1315993","lng":"-119.4563827"},
{"street":"222 Sequoia Dr","city":"Bakersfield","state":"CA","zip":"93308","lat":"35.4073356","lng":"-119.0340528"},
{"street":"26671 Trotter Dr","city":"Tehachapi","state":"CA","zip":"93561","lat":"35.136017","lng":"-118.6026278"},
{"street":"827 Pacific St","city":"Bakersfield","state":"CA","zip":"93305","lat":"35.3832177","lng":"-118.9875668"},
{"street":"24300 Sorrel Ct","city":"Tehachapi","state":"CA","zip":"93561","lat":"35.171061","lng":"-118.6178413"},
{"street":"6019 Pearl Ridge Dr","city":"Bakersfield","state":"CA","zip":"93313","lat":"35.2745928","lng":"-119.0690614"},
{"street":"7124 Drift Creek St","city":"Bakersfield","state":"CA","zip":"93313","lat":"35.2968926","lng":"-119.0816915"},
{"street":"27900 Cummings Valley Rd","city":"Tehachapi","state":"CA","zip":"93561","lat":"35.125757","lng":"-118.6275502"},
{"street":"104 W D St","city":"Tehachapi","state":"CA","zip":"93561","lat":"35.1287411","lng":"-118.4488601"},
{"street":"903 Wilson Ave","city":"Bakersfield","state":"CA","zip":"93308","lat":"35.4170811","lng":"-119.0395147"},
{"street":"30681 Sheeptrail Ct","city":"Tehachapi","state":"CA","zip":"93561","lat":"35.1590733","lng":"-118.6747771"},
{"street":"6706 Chinook Falls Dr","city":"Bakersfield","state":"CA","zip":"93312","lat":"35.4208379","lng":"-119.1207771"},
{"street":"1805 Isil Ave","city":"Bakersfield","state":"CA","zip":"93304","lat":"35.3043468","lng":"-119.0222229"},
{"street":"23961 Breech Ct","city":"Tehachapi","state":"CA","zip":"93561","lat":"35.1656422","lng":"-118.6378509"},
{"street":"2600 Way Ter","city":"Bakersfield","state":"CA","zip":"93304","lat":"35.3506641","lng":"-119.0325135"},
{"street":"512 Tyler St","city":"Taft","state":"CA","zip":"93268","lat":"35.158473","lng":"-119.4572418"},
{"street":"708 Mallory Ct","city":"Taft","state":"CA","zip":"93268","lat":"35.1369872","lng":"-119.4767113"},
{"street":"10200 Ashbourne Dr","city":"Bakersfield","state":"CA","zip":"93312","lat":"35.3598448","lng":"-119.1165968"},
{"street":"20200 Mini Ct","city":"Tehachapi","state":"CA","zip":"93561","lat":"35.134277","lng":"-118.49029"},
{"street":"21611 Foothill Dr","city":"Tehachapi","state":"CA","zip":"93561","lat":"35.1330621","lng":"-118.4877421"},
{"street":"30617 Buckskin Dr","city":"Tehachapi","state":"CA","zip":"93561","lat":"35.0898857","lng":"-118.6768146"},
{"street":"2600 Brookside Dr #46","city":"Bakersfield","state":"CA","zip":"93311","lat":"35.3318145","lng":"-119.0948261"},
{"street":"7508 Bonanza Dr","city":"Bakersfield","state":"CA","zip":"93307","lat":"35.3375509","lng":"-118.9204975"},
{"street":"224 Northrup St","city":"Bakersfield","state":"CA","zip":"93307","lat":"35.3587131","lng":"-118.9899429"},
{"street":"108 Brandon Ave","city":"Taft","state":"CA","zip":"93268","lat":"35.1380611","lng":"-119.4779125"},
{"street":"501 Rose Ave","city":"Taft","state":"CA","zip":"93268","lat":"35.1316254","lng":"-119.4590229"},
{"street":"1513 Fairview Rd","city":"Bakersfield","state":"CA","zip":"93307","lat":"35.3028873","lng":"-119.0193742"},
{"street":"24220 Willow Pass Dr","city":"Tehachapi","state":"CA","zip":"93561","lat":"35.1705658","lng":"-118.6351163"},
{"street":"828 Philippine St","city":"Taft","state":"CA","zip":"93268","lat":"35.1352965","lng":"-119.4806321"},
{"street":"Po Box 2046","city":"Tehachapi","state":"CA","zip":"93581","lat":"35.13","lng":"-118.45"},
{"street":"9903 Rancho Verde Dr","city":"Bakersfield","state":"CA","zip":"93311","lat":"35.3197819","lng":"-119.1128254"},
{"street":"Bank","city":"Bakersfield","state":"CA","zip":"93304","lat":"35.3189727","lng":"-119.0268713"},
{"street":"1626 19th St #14","city":"Bakersfield","state":"CA","zip":"93301","lat":"35.3765106","lng":"-119.0208119"},
{"street":"1809 Doolittle Ave","city":"Bakersfield","state":"CA","zip":"93304","lat":"35.3351625","lng":"-119.0233297"},
{"street":"503 Mulberry St","city":"Tehachapi","state":"CA","zip":"93561","lat":"35.1274339","lng":"-118.4563989"},
{"street":"362 Apple Way","city":"Tehachapi","state":"CA","zip":"93561","lat":"35.1266526","lng":"-118.4437368"},
{"street":"400 White Ln","city":"Bakersfield","state":"CA","zip":"93307","lat":"35.3181794","lng":"-119.0063474"},
{"street":"2801 Loch Fern Ct","city":"Bakersfield","state":"CA","zip":"93306","lat":"35.3988757","lng":"-118.9416972"},
{"street":"1015 Monterey St","city":"Bakersfield","state":"CA","zip":"93305","lat":"35.3794467","lng":"-118.9859979"},
{"street":"9428 Seager Ct","city":"Bakersfield","state":"CA","zip":"93311","lat":"35.3167316","lng":"-119.1071"},
{"street":"11707 Aurora Valley Ave","city":"Bakersfield","state":"CA","zip":"93312","lat":"35.4188781","lng":"-119.1325447"},
{"street":"3800 Piedmont Ave","city":"Bakersfield","state":"CA","zip":"93312","lat":"35.3946545","lng":"-119.1393595"},
{"street":"21276 White Pine Dr","city":"Tehachapi","state":"CA","zip":"93561","lat":"35.1540862","lng":"-118.5080515"},
{"street":"1005 Candlemas Ct","city":"Bakersfield","state":"CA","zip":"93312","lat":"35.3678756","lng":"-119.1318632"},
{"street":"8516 Haupt Ave","city":"Bakersfield","state":"CA","zip":"93306","lat":"35.3633723","lng":"-118.9091686"},
{"street":"24601 Paramount Dr","city":"Tehachapi","state":"CA","zip":"93561","lat":"35.181112","lng":"-118.6482421"},
{"street":"9507 Orchard Grass Ct","city":"Bakersfield","state":"CA","zip":"93313","lat":"35.268421","lng":"-119.0599252"},
{"street":"1107 E 10th St","city":"Bakersfield","state":"CA","zip":"93307","lat":"35.366401","lng":"-118.9903522"},
{"street":"30150 Garces Ct","city":"Tehachapi","state":"CA","zip":"93561","lat":"35.1693492","lng":"-118.6669037"},
{"street":"6409 Castleford St","city":"Bakersfield","state":"CA","zip":"93313","lat":"35.2966897","lng":"-119.0421514"},
{"street":"29800 Butterfield Way","city":"Tehachapi","state":"CA","zip":"93561","lat":"35.1505522","lng":"-118.6602505"},
{"street":"19225 Jacks Hill Rd","city":"Tehachapi","state":"CA","zip":"93561","lat":"35.0989776","lng":"-118.6568099"},
{"street":"601 Douglas St","city":"Bakersfield","state":"CA","zip":"93308","lat":"35.4256389","lng":"-119.0325363"},
{"street":"632 Cherry Ln #H","city":"Tehachapi","state":"CA","zip":"93561","lat":"35.1206543","lng":"-118.4592673"},
{"street":"20140 Park Rd #D","city":"Tehachapi","state":"CA","zip":"93561","lat":"35.1278712","lng":"-118.4884263"},
{"street":"716 S 10th St","city":"Taft","state":"CA","zip":"93268","lat":"35.1337022","lng":"-119.464563"},
{"street":"1021 S Green St","city":"Tehachapi","state":"CA","zip":"93561","lat":"35.119701","lng":"-118.447652"},
{"street":"19066 Conway Ave","city":"Tehachapi","state":"CA","zip":"93561","lat":"35.1264893","lng":"-118.4690829"},
{"street":"801 Nord Ave","city":"Bakersfield","state":"CA","zip":"93314","lat":"35.3655221","lng":"-119.1993165"},
{"street":"1609 Wilson Rd","city":"Bakersfield","state":"CA","zip":"93304","lat":"35.3318845","lng":"-119.0201357"},
{"street":"5004 Sea Star Ln","city":"Bakersfield","state":"CA","zip":"93309","lat":"35.3346139","lng":"-119.0576525"},
{"street":"27564 119th Hwy","city":"Taft","state":"CA","zip":"93268","lat":"35.1424678","lng":"-119.4472351"},
{"street":"26751 Sutter Ct","city":"Tehachapi","state":"CA","zip":"93561","lat":"35.1665992","lng":"-118.6064908"},
{"street":"27930 Hialeah Dr","city":"Tehachapi","state":"CA","zip":"93561","lat":"35.0797022","lng":"-118.6279604"},
{"street":"211 S Davis St","city":"Tehachapi","state":"CA","zip":"93561","lat":"35.1300418","lng":"-118.4450301"},
{"street":"21405 Quail Springs Rd","city":"Tehachapi","state":"CA","zip":"93561","lat":"35.1504229","lng":"-118.5106552"},
{"street":"14710 Redwood Springs Dr","city":"Bakersfield","state":"CA","zip":"93312","lat":"35.3903806","lng":"-119.1656391"},
{"street":"5225 Fillmore Ave","city":"Bakersfield","state":"CA","zip":"93306","lat":"35.3695077","lng":"-118.925866"},
{"street":"500 W Columbus St","city":"Bakersfield","state":"CA","zip":"93301","lat":"35.3981073","lng":"-119.0076205"},
{"street":"2801 Loch Fern Ct","city":"Bakersfield","state":"CA","zip":"93306","lat":"35.3988757","lng":"-118.9416972"},
{"street":"30181 Sunland Way","city":"Tehachapi","state":"CA","zip":"93561","lat":"35.151382","lng":"-118.666871"},
{"street":"720 Way Ter #54","city":"Bakersfield","state":"CA","zip":"93304","lat":"35.350606","lng":"-119.011292"},
{"street":"2429 Beech St","city":"Bakersfield","state":"CA","zip":"93301","lat":"35.3825265","lng":"-119.0345139"},
{"street":"333 Maple Ave","city":"Taft","state":"CA","zip":"93268","lat":"35.1486664","lng":"-119.4534564"},
{"street":"1114 Lake St","city":"Bakersfield","state":"CA","zip":"93305","lat":"35.3785899","lng":"-118.9847694"},
{"street":"35 Poso Hollow Rd #RR3","city":"Bakersfield","state":"CA","zip":"93308","lat":"35.543508","lng":"-119.061497"},
{"street":"653 Twinleaf Dr","city":"Bakersfield","state":"CA","zip":"93308","lat":"35.4285392","lng":"-119.0344912"},
{"street":"19809 Cross Way","city":"Tehachapi","state":"CA","zip":"93561","lat":"35.1272848","lng":"-118.4830661"},
{"street":"29781 N Lower Valley Rd","city":"Tehachapi","state":"CA","zip":"93561","lat":"35.1692369","lng":"-118.6599087"},
{"street":"708 El Tejon Ave","city":"Bakersfield","state":"CA","zip":"93308","lat":"35.4183774","lng":"-119.0354686"},
{"street":"801 Nord Ave","city":"Bakersfield","state":"CA","zip":"93314","lat":"35.3655221","lng":"-119.1993165"},
{"street":"5405 Peppertree Ln","city":"Bakersfield","state":"CA","zip":"93309","lat":"35.325828","lng":"-119.0615843"},
{"street":"222 Sequoia Dr","city":"Bakersfield","state":"CA","zip":"93308","lat":"35.4073356","lng":"-119.0340528"},
{"street":"713 A St","city":"Taft","state":"CA","zip":"93268","lat":"35.1365072","lng":"-119.4768926"},
{"street":"24400 Bay Ct","city":"Tehachapi","state":"CA","zip":"93561","lat":"35.1730814","lng":"-118.6181148"},
{"street":"1315 Baldwin Rd","city":"Bakersfield","state":"CA","zip":"93304","lat":"35.3406564","lng":"-119.0291947"},
{"street":"3409 Fillmore Ave","city":"Bakersfield","state":"CA","zip":"93306","lat":"35.3694144","lng":"-118.9418792"},
{"street":"49520 Alan Ave","city":"Tehachapi","state":"CA","zip":"93561","lat":"35.1341111","lng":"-118.4294308"},
{"street":"400 N Stine Rd","city":"Bakersfield","state":"CA","zip":"93309","lat":"35.3620562","lng":"-119.0474701"},
{"street":"525 Walker St","city":"Arvin","state":"CA","zip":"93203","lat":"35.20485499999999","lng":"-118.835766"},
{"street":"307 Calvin St","city":"Taft","state":"CA","zip":"93268","lat":"35.1462087","lng":"-119.4535471"},
{"street":"25700 Deertrail Dr","city":"Tehachapi","state":"CA","zip":"93561","lat":"35.191649","lng":"-118.651246"},
{"street":"1040 Stevens St","city":"Taft","state":"CA","zip":"93268","lat":"35.1325552","lng":"-119.4506094"},
{"street":"1410 Hood St","city":"Arvin","state":"CA","zip":"93203","lat":"35.2040986","lng":"-118.8409276"},
{"street":"22601 Shenandoah Pl","city":"Tehachapi","state":"CA","zip":"93561","lat":"35.147567","lng":"-118.601306"},
{"street":"2725 Renegade Ave","city":"Bakersfield","state":"CA","zip":"93306","lat":"35.4025907","lng":"-118.9618933"},
{"street":"2120 L St","city":"Bakersfield","state":"CA","zip":"93301","lat":"35.3788388","lng":"-119.0161629"},
{"street":"29341 Stallion Springs Dr","city":"Tehachapi","state":"CA","zip":"93561","lat":"35.087676","lng":"-118.65144"},
{"street":"23010 Tulip Ct","city":"Tehachapi","state":"CA","zip":"93561","lat":"35.154153","lng":"-118.476859"},
{"street":"22559 Mariposa Rd","city":"Tehachapi","state":"CA","zip":"93561","lat":"35.1472553","lng":"-118.5056597"},
{"street":"27522 Acacia St","city":"Taft","state":"CA","zip":"93268","lat":"35.2027048","lng":"-119.4092937"},
{"street":"22811 Lake Dr","city":"Tehachapi","state":"CA","zip":"93561","lat":"35.1512956","lng":"-118.4800208"},
{"street":"8806 Jerry St","city":"Bakersfield","state":"CA","zip":"93307","lat":"35.2756338","lng":"-119.0151002"},
{"street":"4410 Waterfall Canyon Dr","city":"Bakersfield","state":"CA","zip":"93313","lat":"35.2839682","lng":"-119.0519477"},
{"street":"7508 Bonanza Dr","city":"Bakersfield","state":"CA","zip":"93307","lat":"35.3375509","lng":"-118.9204975"},
{"street":"14160 Clay Ct","city":"Bakersfield","state":"CA","zip":"93306","lat":"35.432054","lng":"-118.875037"},
{"street":"19940 Chinook St","city":"Tehachapi","state":"CA","zip":"93561","lat":"35.1090921","lng":"-118.4633684"},
{"street":"20125 Tehachapi Willow Springs Rd","city":"Tehachapi","state":"CA","zip":"93561","lat":"35.111929","lng":"-118.399008"},
{"street":"4200 Boise St","city":"Bakersfield","state":"CA","zip":"93306","lat":"35.413078","lng":"-118.955367"},
{"street":"1309 34th St","city":"Bakersfield","state":"CA","zip":"93301","lat":"35.3903563","lng":"-119.0166411"},
{"street":"903 Wilson Ave","city":"Bakersfield","state":"CA","zip":"93308","lat":"35.4170811","lng":"-119.0395147"},
{"street":"403 Monroe St","city":"Taft","state":"CA","zip":"93268","lat":"35.15644959999999","lng":"-119.4528218"},
{"street":"23700 Crystal Lake Ln","city":"Tehachapi","state":"CA","zip":"93561","lat":"35.1619855","lng":"-118.658815"},
{"street":"207 Ash St","city":"Taft","state":"CA","zip":"93268","lat":"35.1511682","lng":"-119.4495291"},
{"street":"5904 Columbine St","city":"Bakersfield","state":"CA","zip":"93308","lat":"35.4164085","lng":"-119.0682432"},
{"street":"1016 Valhalla Dr","city":"Bakersfield","state":"CA","zip":"93309","lat":"35.3451685","lng":"-119.0548342"},
{"street":"7713 Canfield Ct","city":"Bakersfield","state":"CA","zip":"93308","lat":"35.4234715","lng":"-119.0887636"},
{"street":"4015 Scenic River Ln","city":"Bakersfield","state":"CA","zip":"93308","lat":"35.3961246","lng":"-119.0899906"},
{"street":"902 2nd St","city":"Taft","state":"CA","zip":"93268","lat":"35.1460344","lng":"-119.4512961"},
{"street":"217 U St","city":"Bakersfield","state":"CA","zip":"93304","lat":"35.3575965","lng":"-119.0057335"},
{"street":"30060 Jamaica Dunes Dr","city":"Tehachapi","state":"CA","zip":"93561","lat":"35.15887680000001","lng":"-118.6653771"},
{"street":"2520 S P St","city":"Bakersfield","state":"CA","zip":"93304","lat":"35.3313384","lng":"-119.011661"},
{"street":"20113 Bald Mountain Dr","city":"Tehachapi","state":"CA","zip":"93561","lat":"35.1504875","lng":"-118.4882103"},
{"street":"207 Shady Ln","city":"Bakersfield","state":"CA","zip":"93301","lat":"35.3724687","lng":"-119.0038919"},
{"street":"1913 Maple St","city":"Bakersfield","state":"CA","zip":"93304","lat":"35.3655562","lng":"-119.0238046"},
{"street":"6805 Ona Ct","city":"Bakersfield","state":"CA","zip":"93307","lat":"35.2929111","lng":"-119.0244664"},
{"street":"9305 Laurel Oak Way","city":"Bakersfield","state":"CA","zip":"93311","lat":"35.3282836","lng":"-119.1064639"},
{"street":"519 Shattuck Ave","city":"Taft","state":"CA","zip":"93268","lat":"35.1310951","lng":"-119.4612651"},
{"street":"202 Pierce St","city":"Taft","state":"CA","zip":"93268","lat":"35.153236","lng":"-119.4622511"},
{"street":"22501 Shenandoah Pl","city":"Tehachapi","state":"CA","zip":"93561","lat":"35.146635","lng":"-118.602197"},
{"street":"28156 Mcclaren Ave","city":"Taft","state":"CA","zip":"93268","lat":"35.2204742","lng":"-119.3797971"},
{"street":"9305 Laurel Oak Way","city":"Bakersfield","state":"CA","zip":"93311","lat":"35.3282836","lng":"-119.1064639"},
{"street":"1209 Royal St","city":"Arvin","state":"CA","zip":"93203","lat":"35.2002055","lng":"-118.8379461"},
{"street":"601 Garratt St","city":"Taft","state":"CA","zip":"93268","lat":"35.1429372","lng":"-119.4466561"},
{"street":"22116 Gold St","city":"Tehachapi","state":"CA","zip":"93561","lat":"35.1422007","lng":"-118.4848728"},
{"street":"22710 Tom Ct","city":"Tehachapi","state":"CA","zip":"93561","lat":"35.1502848","lng":"-118.4767475"},
{"street":"716 Espee St","city":"Bakersfield","state":"CA","zip":"93301","lat":"35.3841287","lng":"-119.0094393"},
{"street":"4216 Hillsborough Dr","city":"Bakersfield","state":"CA","zip":"93309","lat":"35.3599778","lng":"-119.0506067"},
{"street":"4509 Baybrook Way","city":"Bakersfield","state":"CA","zip":"93313","lat":"35.3016791","lng":"-119.0526707"},
{"street":"912 Georgia St","city":"Tehachapi","state":"CA","zip":"93561","lat":"35.1222341","lng":"-118.4306858"},
{"street":"1322 Catalpa Way","city":"Bakersfield","state":"CA","zip":"93306","lat":"35.3765904","lng":"-118.95888"},
{"street":"911 S Green St","city":"Tehachapi","state":"CA","zip":"93561","lat":"35.1211946","lng":"-118.4474785"},
{"street":"406 5th St","city":"Taft","state":"CA","zip":"93268","lat":"35.1429571","lng":"-119.4578425"},
{"street":"10904 Royal Ascot Ave","city":"Bakersfield","state":"CA","zip":"93312","lat":"35.3995961","lng":"-119.1234124"},
{"street":"2429 Beech St","city":"Bakersfield","state":"CA","zip":"93301","lat":"35.3825265","lng":"-119.0345139"},
{"street":"5101 Marsha St","city":"Bakersfield","state":"CA","zip":"93309","lat":"35.3524079","lng":"-119.0579934"},
{"street":"316 Pierce St","city":"Taft","state":"CA","zip":"93268","lat":"35.1556331","lng":"-119.4623871"},
{"street":"4708 La Posta St","city":"Bakersfield","state":"CA","zip":"93307","lat":"35.3494491","lng":"-118.9512498"},
{"street":"11009 Truchard Ct","city":"Bakersfield","state":"CA","zip":"93312","lat":"35.4135068","lng":"-119.1250935"},
{"street":"2553 Old Farm Rd","city":"Bakersfield","state":"CA","zip":"93312","lat":"35.3831809","lng":"-119.1374287"},
{"street":"2905 Saint Marys St","city":"Bakersfield","state":"CA","zip":"93305","lat":"35.4004175","lng":"-118.969307"},
{"street":"24500 Marcel Dr","city":"Tehachapi","state":"CA","zip":"93561","lat":"35.176787","lng":"-118.510774"},
{"street":"19813 Breeze Pl","city":"Tehachapi","state":"CA","zip":"93561","lat":"35.149702","lng":"-118.48272"},
{"street":"4808 Stanton Way","city":"Bakersfield","state":"CA","zip":"93309","lat":"35.357714","lng":"-119.0562468"},
{"street":"2725 Renegade Ave","city":"Bakersfield","state":"CA","zip":"93306","lat":"35.4025907","lng":"-118.9618933"},
{"street":"23881 Coyote Ct","city":"Tehachapi","state":"CA","zip":"93561","lat":"35.1655792","lng":"-118.59963"},
{"street":"319 San Emidio St","city":"Taft","state":"CA","zip":"93268","lat":"35.1437941","lng":"-119.4553539"},
{"street":"7003 Elkhorn St","city":"Bakersfield","state":"CA","zip":"93313","lat":"35.299492","lng":"-119.0799468"},
{"street":"809 Oildale Dr","city":"Bakersfield","state":"CA","zip":"93308","lat":"35.4142039","lng":"-119.0301563"},
{"street":"4216 Hillsborough Dr","city":"Bakersfield","state":"CA","zip":"93309","lat":"35.3599778","lng":"-119.0506067"},
{"street":"Brett Ave","city":"Tehachapi","state":"CA","zip":"93561","lat":"35.1332069","lng":"-118.430615"},
{"street":"26950 Columbia Way","city":"Tehachapi","state":"CA","zip":"93561","lat":"35.1649487","lng":"-118.6046218"},
{"street":"416 El Tejon Ave","city":"Bakersfield","state":"CA","zip":"93308","lat":"35.4184051","lng":"-119.0293766"},
{"street":"25480 Barbara St","city":"Arvin","state":"CA","zip":"93203","lat":"35.2248721","lng":"-118.8231514"},
{"street":"602 Blue Way Mtn #A","city":"Bakersfield","state":"CA","zip":"93308","lat":"35.4407359","lng":"-119.0328545"},
{"street":"1300 Valhalla Dr","city":"Bakersfield","state":"CA","zip":"93309","lat":"35.3429306","lng":"-119.0548342"},
{"street":"1309 34th St","city":"Bakersfield","state":"CA","zip":"93301","lat":"35.3903563","lng":"-119.0166411"},
{"street":"120 Taylor St","city":"Taft","state":"CA","zip":"93268","lat":"35.152531","lng":"-119.459718"},
{"street":"17900 Bold Venture Dr","city":"Tehachapi","state":"CA","zip":"93561","lat":"35.0801","lng":"-118.6190265"},
{"street":"931 S St","city":"Bakersfield","state":"CA","zip":"93304","lat":"35.3662978","lng":"-119.0086436"},
{"street":"108 Center St","city":"Taft","state":"CA","zip":"93268","lat":"35.1392196","lng":"-119.4528898"},
{"street":"601 E St","city":"Taft","state":"CA","zip":"93268","lat":"35.133198","lng":"-119.4734703"},
{"street":"8704 Maria Angelica St","city":"Bakersfield","state":"CA","zip":"93313","lat":"35.2759611","lng":"-119.031877"},
{"street":"607 Pierce St","city":"Taft","state":"CA","zip":"93268","lat":"35.1597672","lng":"-119.4629596"},
{"street":"21520 San Lucas Dr","city":"Tehachapi","state":"CA","zip":"93561","lat":"35.131621","lng":"-118.485405"},
{"street":"3020 Catalina Dr","city":"Bakersfield","state":"CA","zip":"93306","lat":"35.4011532","lng":"-118.9451544"},
{"street":"702 Mulberry St","city":"Tehachapi","state":"CA","zip":"93561","lat":"35.1249824","lng":"-118.4559426"},
{"street":"24019 Quail Canyon Rd","city":"Tehachapi","state":"CA","zip":"93561","lat":"35.1688141","lng":"-118.490616"},
{"street":"11801 Pasture Ave","city":"Tehachapi","state":"CA","zip":"93561","lat":"35.1835427","lng":"-118.3369946"},
{"street":"20405 Mar Vista Pl","city":"Tehachapi","state":"CA","zip":"93561","lat":"35.1332429","lng":"-118.4939917"},
{"street":"801 Pierce St","city":"Taft","state":"CA","zip":"93268","lat":"35.1629599","lng":"-119.4630218"},
{"street":"602 Blue Way Mtn #A","city":"Bakersfield","state":"CA","zip":"93308","lat":"35.4407359","lng":"-119.0328545"},
{"street":"Po Box 1349","city":"Tehachapi","state":"CA","zip":"93581","lat":"35.13","lng":"-118.45"},
{"street":"108 Woodlawn Ave","city":"Taft","state":"CA","zip":"93268","lat":"35.1393776","lng":"-119.4678722"},
{"street":"1913 Maple St","city":"Bakersfield","state":"CA","zip":"93304","lat":"35.3655562","lng":"-119.0238046"},
{"street":"312 Pierce St","city":"Taft","state":"CA","zip":"93268","lat":"35.15547610000001","lng":"-119.4623871"},
{"street":"1726 Orange St","city":"Bakersfield","state":"CA","zip":"93304","lat":"35.3669251","lng":"-119.0221331"},
{"street":"22020 Cody Ct","city":"Tehachapi","state":"CA","zip":"93561","lat":"35.1384602","lng":"-118.6466015"},
{"street":"1904 Quincy St","city":"Bakersfield","state":"CA","zip":"93305","lat":"35.38098","lng":"-118.9708478"},
{"street":"809 Oildale Dr","city":"Bakersfield","state":"CA","zip":"93308","lat":"35.4142039","lng":"-119.0301563"},
{"street":"919 2nd St","city":"Taft","state":"CA","zip":"93268","lat":"35.14717","lng":"-119.4503737"},
{"street":"Caddy Tehachapi","city":"Tehachapi","state":"CA","zip":"93561","lat":"35.1573374","lng":"-118.6653203"},
{"street":"14141 Di Giorgio Rd","city":"Arvin","state":"CA","zip":"93203","lat":"35.2522707","lng":"-118.8450698"},
{"street":"813 La Puente Dr","city":"Bakersfield","state":"CA","zip":"93309","lat":"35.3468968","lng":"-119.0732429"},
{"street":"411 Alpine St","city":"Taft","state":"CA","zip":"93268","lat":"35.1414336","lng":"-119.4708413"},
{"street":"212 Rose Ave","city":"Taft","state":"CA","zip":"93268","lat":"35.13535340000001","lng":"-119.4583525"},
{"street":"801 N Dennison Rd","city":"Tehachapi","state":"CA","zip":"93561","lat":"35.1342896","lng":"-118.432104"},
{"street":"5101 Marsha St #111","city":"Bakersfield","state":"CA","zip":"93309","lat":"35.3524079","lng":"-119.0579934"},
{"street":"1208 Fairview Rd #3D","city":"Bakersfield","state":"CA","zip":"93307","lat":"35.3034039","lng":"-119.0161233"},
{"street":"20420 Sycamore Dr","city":"Tehachapi","state":"CA","zip":"93561","lat":"35.1589205","lng":"-118.4931022"},
{"street":"10904 Royal Ascot Ave","city":"Bakersfield","state":"CA","zip":"93312","lat":"35.3995961","lng":"-119.1234124"},
{"street":"3400 Mountain View St","city":"Bakersfield","state":"CA","zip":"93309","lat":"35.3241329","lng":"-119.0419448"},
{"street":"20120 Sears Dr","city":"Tehachapi","state":"CA","zip":"93561","lat":"35.152484","lng":"-118.4887001"},
{"street":"2608 Lacorte Pl","city":"Bakersfield","state":"CA","zip":"93313","lat":"35.2787942","lng":"-119.0320134"},
{"street":"6906 Firebaugh St","city":"Bakersfield","state":"CA","zip":"93313","lat":"35.2976814","lng":"-119.0792878"},
{"street":"21800 Oak Summit Ct","city":"Tehachapi","state":"CA","zip":"93561","lat":"35.103343","lng":"-118.520291"},
{"street":"312 S Mill St","city":"Tehachapi","state":"CA","zip":"93561","lat":"35.1296245","lng":"-118.4526118"},
{"street":"1618 Locust Ravine","city":"Bakersfield","state":"CA","zip":"93306","lat":"35.3796841","lng":"-118.9622572"},
{"street":"208 T St","city":"Bakersfield","state":"CA","zip":"93304","lat":"35.357632","lng":"-119.007567"},
{"street":"1015 Monterey St","city":"Bakersfield","state":"CA","zip":"93305","lat":"35.3794467","lng":"-118.9859979"},
{"street":"601 Douglas St #112B","city":"Bakersfield","state":"CA","zip":"93308","lat":"35.4256389","lng":"-119.0325363"},
{"street":"104 Mesquite Dr","city":"Tehachapi","state":"CA","zip":"93561","lat":"35.115319","lng":"-118.4466571"},
{"street":"205 Suzanne Ln","city":"Taft","state":"CA","zip":"93268","lat":"35.1503967","lng":"-119.4493561"},
{"street":"30280 Knight Ct","city":"Tehachapi","state":"CA","zip":"93561","lat":"35.1610009","lng":"-118.6689998"},
{"street":"9428 Seager Ct","city":"Bakersfield","state":"CA","zip":"93311","lat":"35.3167316","lng":"-119.1071"},
{"street":"11105 Cypress Falls Ave","city":"Bakersfield","state":"CA","zip":"93312","lat":"35.4243929","lng":"-119.1261158"},
{"street":"610 Tyler St","city":"Taft","state":"CA","zip":"93268","lat":"35.1601229","lng":"-119.4573098"},
{"street":"10200 Ashbourne Dr","city":"Bakersfield","state":"CA","zip":"93312","lat":"35.3598448","lng":"-119.1165968"},
{"street":"2601 Westholme Blvd #B","city":"Bakersfield","state":"CA","zip":"93309","lat":"35.3314338","lng":"-119.0652888"},
{"street":"17481 Climber Way Mtn","city":"Tehachapi","state":"CA","zip":"93561","lat":"35.0732162","lng":"-118.5518698"},
{"street":"3535 S H St #49","city":"Bakersfield","state":"CA","zip":"93304","lat":"35.3226946","lng":"-119.0216702"},
{"street":"703 Philippine St","city":"Taft","state":"CA","zip":"93268","lat":"35.1348885","lng":"-119.4758954"},
{"street":"207 Shady Ln","city":"Bakersfield","state":"CA","zip":"93301","lat":"35.3724687","lng":"-119.0038919"},
{"street":"7003 Elkhorn St","city":"Bakersfield","state":"CA","zip":"93313","lat":"35.299492","lng":"-119.0799468"},
{"street":"101 E Woodrow St","city":"Taft","state":"CA","zip":"93268","lat":"35.1436138","lng":"-119.451643"},
{"street":"12 Westpark Way","city":"Taft","state":"CA","zip":"93268","lat":"35.1395778","lng":"-119.469776"},
{"street":"318 N Stine Rd","city":"Bakersfield","state":"CA","zip":"93309","lat":"35.3611078","lng":"-119.0482429"},
{"street":"634 Cherry Ln","city":"Tehachapi","state":"CA","zip":"93561","lat":"35.1206462","lng":"-118.4593194"},
{"street":"404 Mckinley St","city":"Taft","state":"CA","zip":"93268","lat":"35.1420404","lng":"-119.4717486"},
{"street":"6009 Chicory Dr","city":"Bakersfield","state":"CA","zip":"93309","lat":"35.3206284","lng":"-119.0716058"},
{"street":"21321 Golden Hills Blvd","city":"Tehachapi","state":"CA","zip":"93561","lat":"35.1292852","lng":"-118.4866016"},
{"street":"7713 Canfield Ct","city":"Bakersfield","state":"CA","zip":"93308","lat":"35.4234715","lng":"-119.0887636"},
{"street":"Cedarwood","city":"Bakersfield","state":"CA","zip":"93309","lat":"35.328363","lng":"-119.063437"},
{"street":"19600 Mohawk","city":"Tehachapi","state":"CA","zip":"93561","lat":"35.10425439999999","lng":"-118.4447879"},
{"street":"920 Monna Ave","city":"Bakersfield","state":"CA","zip":"93308","lat":"35.4275714","lng":"-119.0109398"},
{"street":"3507 Ginnelli Way","city":"Bakersfield","state":"CA","zip":"93309","lat":"35.328833","lng":"-119.0416513"},
{"street":"530 Jacobsen Ct","city":"Tehachapi","state":"CA","zip":"93561","lat":"35.1251242","lng":"-118.4398125"},
{"street":"3808 Wood Ln","city":"Bakersfield","state":"CA","zip":"93309","lat":"35.3452813","lng":"-119.0460154"},
{"street":"3805 Kathy Suzanne Way","city":"Bakersfield","state":"CA","zip":"93313","lat":"35.2734325","lng":"-119.0447653"},
{"street":"3409 Fillmore Ave","city":"Bakersfield","state":"CA","zip":"93306","lat":"35.3694144","lng":"-118.9418792"},
{"street":"6000 Burke Way","city":"Bakersfield","state":"CA","zip":"93309","lat":"35.3495326","lng":"-119.0678342"},
{"street":"700 46th St","city":"Bakersfield","state":"CA","zip":"93301","lat":"35.4006464","lng":"-119.0104231"},
{"street":"Ledgeview Ln","city":"Bakersfield","state":"CA","zip":"93313","lat":"35.283502","lng":"-119.031751"},
{"street":"Oak Summit Ct","city":"Tehachapi","state":"CA","zip":"93561","lat":"35.101429","lng":"-118.51625"},
{"street":"19809 Luana Dr","city":"Tehachapi","state":"CA","zip":"93561","lat":"35.1396936","lng":"-118.4832713"},
{"street":"7101 Darrin Ave","city":"Bakersfield","state":"CA","zip":"93308","lat":"35.4140868","lng":"-119.0814497"},
{"street":"1718 Panama Ln #910","city":"Bakersfield","state":"CA","zip":"93307","lat":"35.296963","lng":"-119.0221129"},
{"street":"521 Oakwood St","city":"Tehachapi","state":"CA","zip":"93561","lat":"35.1254908","lng":"-118.4573571"},
{"street":"2520 S P St","city":"Bakersfield","state":"CA","zip":"93304","lat":"35.3313384","lng":"-119.011661"},
{"street":"225 Pine Ct","city":"Tehachapi","state":"CA","zip":"93561","lat":"35.11819759999999","lng":"-118.4515623"},
{"street":"314 Kincaid St","city":"Bakersfield","state":"CA","zip":"93307","lat":"35.3600432","lng":"-118.9932285"},
{"street":"8516 Haupt Ave","city":"Bakersfield","state":"CA","zip":"93306","lat":"35.3633723","lng":"-118.9091686"},
{"street":"1000 Pacheco Rd","city":"Bakersfield","state":"CA","zip":"93307","lat":"35.3112478","lng":"-119.0136225"},
{"street":"9902 Theodora Ave","city":"Bakersfield","state":"CA","zip":"93312","lat":"35.3915263","lng":"-119.1121893"},
{"street":"27721 Bear Valley Rd","city":"Tehachapi","state":"CA","zip":"93561","lat":"35.1724172","lng":"-118.6249977"},
{"street":"4201 Parkwood Ct","city":"Bakersfield","state":"CA","zip":"93309","lat":"35.3443331","lng":"-119.0493339"},
{"street":"21501 Shirley Dr","city":"Tehachapi","state":"CA","zip":"93561","lat":"35.1300167","lng":"-118.4804885"},
{"street":"500 W Columbus St","city":"Bakersfield","state":"CA","zip":"93301","lat":"35.3981073","lng":"-119.0076205"},
{"street":"22213 Valley Vista Dr","city":"Tehachapi","state":"CA","zip":"93561","lat":"35.1427224","lng":"-118.513606"},
{"street":"White Pine Dr","city":"Tehachapi","state":"CA","zip":"93561","lat":"35.1537333","lng":"-118.5028502"},
{"street":"2831 Beech St","city":"Bakersfield","state":"CA","zip":"93301","lat":"35.3886936","lng":"-119.0289544"},
{"street":"3902 Whirlwind Dr","city":"Bakersfield","state":"CA","zip":"93313","lat":"35.2955957","lng":"-119.0458791"},
{"street":"8806 Jerry St","city":"Bakersfield","state":"CA","zip":"93307","lat":"35.2756338","lng":"-119.0151002"},
{"street":"104 Pinon St","city":"Tehachapi","state":"CA","zip":"93561","lat":"35.116646","lng":"-118.4477294"},
{"street":"W E D St","city":"Tehachapi","state":"CA","zip":"93561","lat":"35.128483","lng":"-118.4500811"},
{"street":"1320 Tanglewood Dr","city":"Tehachapi","state":"CA","zip":"93561","lat":"35.11466530000001","lng":"-118.449144"},
{"street":"15787 Blackburn Canyon Rd","city":"Tehachapi","state":"CA","zip":"93561","lat":"35.04913800000001","lng":"-118.431188"},
{"street":"27961 Ack Ack Ct","city":"Tehachapi","state":"CA","zip":"93561","lat":"35.0810769","lng":"-118.6281427"},
{"street":"127 Lincoln Ave","city":"Bakersfield","state":"CA","zip":"93308","lat":"35.4143911","lng":"-119.0232843"},
{"street":"925 Quincy St","city":"Bakersfield","state":"CA","zip":"93305","lat":"35.3839343","lng":"-118.9858124"},
{"street":"2608 Lacorte Pl","city":"Bakersfield","state":"CA","zip":"93313","lat":"35.2787942","lng":"-119.0320134"},
{"street":"203 Taylor St","city":"Taft","state":"CA","zip":"93268","lat":"35.1532498","lng":"-119.4603324"},
{"street":"6300 Ridgeway Ct","city":"Bakersfield","state":"CA","zip":"93306","lat":"35.3934131","lng":"-118.9317119"},
{"street":"Po Box 189","city":"Tehachapi","state":"CA","zip":"93581","lat":"35.13","lng":"-118.45"},
{"street":"20409 Bell Ct","city":"Tehachapi","state":"CA","zip":"93561","lat":"35.1295123","lng":"-118.4934443"},
{"street":"1341 Ponderosa Dr","city":"Tehachapi","state":"CA","zip":"93561","lat":"35.1140292","lng":"-118.4459042"},
{"street":"6000 Burke Way","city":"Bakersfield","state":"CA","zip":"93309","lat":"35.3495326","lng":"-119.0678342"},
{"street":"3409 Edison Hwy","city":"Bakersfield","state":"CA","zip":"93307","lat":"35.3643658","lng":"-118.9425615"},
{"street":"27981 119th Hwy","city":"Taft","state":"CA","zip":"93268","lat":"35.1424678","lng":"-119.4472351"},
{"street":"Meadow Lakes Dr","city":"Tehachapi","state":"CA","zip":"93561","lat":"35.1677127","lng":"-118.6590778"},
{"street":"20674 Tucker Rd","city":"Tehachapi","state":"CA","zip":"93561","lat":"35.1193608","lng":"-118.4669841"},
{"street":"24553 Chimanimani Ct","city":"Tehachapi","state":"CA","zip":"93561","lat":"35.175028","lng":"-118.344066"},
{"street":"21600 Loop St","city":"Tehachapi","state":"CA","zip":"93561","lat":"35.132155","lng":"-118.4889738"},
{"street":"23740 Port Royal Ct","city":"Tehachapi","state":"CA","zip":"93561","lat":"35.1615217","lng":"-118.6612302"},
{"street":"2918 Kaibab Ave","city":"Bakersfield","state":"CA","zip":"93306","lat":"35.404426","lng":"-118.9599719"},
{"street":"3402 Buccaneer Rose Ave","city":"Bakersfield","state":"CA","zip":"93313","lat":"35.2857251","lng":"-119.0410376"},
{"street":"1401 Robin Ln","city":"Tehachapi","state":"CA","zip":"93561","lat":"35.1134903","lng":"-118.4611897"},
{"street":"24761 Deertrail Dr","city":"Tehachapi","state":"CA","zip":"93561","lat":"35.1788809","lng":"-118.649242"},
{"street":"123 N 10th St #26","city":"Taft","state":"CA","zip":"93268","lat":"35.1432179","lng":"-119.468467"},
{"street":"10708 Palm Ave","city":"Bakersfield","state":"CA","zip":"93312","lat":"35.3764621","lng":"-119.1242756"},
{"street":"10200 Enger St","city":"Bakersfield","state":"CA","zip":"93312","lat":"35.378722","lng":"-119.1152337"},
{"street":"Po Box 115","city":"Tehachapi","state":"CA","zip":"93581","lat":"35.13","lng":"-118.45"},
{"street":"24260 Bowen Ct","city":"Tehachapi","state":"CA","zip":"93561","lat":"35.1712394","lng":"-118.6347972"},
{"street":"28180 Sunridge Ave","city":"Taft","state":"CA","zip":"93268","lat":"35.2240474","lng":"-119.3776257"},
{"street":"5904 Columbine St","city":"Bakersfield","state":"CA","zip":"93308","lat":"35.4164085","lng":"-119.0682432"},
{"street":"19188 Backes Ln","city":"Tehachapi","state":"CA","zip":"93561","lat":"35.0973382","lng":"-118.5004008"},
{"street":"26701 Skyline Dr","city":"Tehachapi","state":"CA","zip":"93561","lat":"35.1404235","lng":"-118.6060122"},
{"street":"1012 3rd St","city":"Taft","state":"CA","zip":"93268","lat":"35.1475912","lng":"-119.4505105"},
{"street":"C District Office 29981 Gree","city":"Tehachapi","state":"CA","zip":"93561","lat":"35.1321877","lng":"-118.4489739"},
{"street":"827 Pacific St","city":"Bakersfield","state":"CA","zip":"93305","lat":"35.3832177","lng":"-118.9875668"},
{"street":"2600 Brookside Dr #46","city":"Bakersfield","state":"CA","zip":"93311","lat":"35.3318145","lng":"-119.0948261"},
]}
